H1 CPF 01  gfz 2021 09 05 12  7482 tandemx   
H2 1003001  6202 36605    2021 09 05 12 59 42 2021 09 10 00 00 42   120 1 1  0 0 0
H9
10 0 59462  63342.000000  0     705632.590    973483.543  -6789773.673
10 0 59462  63462.000000  0    1606538.007   1038448.589  -6624702.256
10 0 59462  63582.000000  0    2480462.602   1069898.145  -6344072.177
10 0 59462  63702.000000  0    3311658.986   1067886.780  -5952716.258
10 0 59462  63822.000000  0    4085100.615   1033314.377  -5457385.303
10 0 59462  63942.000000  0    4786752.538    967897.382  -4866643.211
10 0 59462  64062.000000  0    5403830.351    874122.162  -4190730.634
10 0 59462  64182.000000  0    5925040.530    755180.699  -3441397.354
10 0 59462  64302.000000  0    6340796.917    614889.397  -2631706.419
10 0 59462  64422.000000  0    6643409.674    457593.170  -1775812.088
10 0 59462  64542.000000  0    6827241.001    288056.068   -888712.806
10 0 59462  64662.000000  0    6888820.610    111341.169     14014.912
10 0 59462  64782.000000  0    6826919.908    -67316.624    916495.119
10 0 59462  64902.000000  0    6642582.326   -242643.209   1802839.590
10 0 59462  65022.000000  0    6339107.492   -409458.810   2657436.932
10 0 59462  65142.000000  0    5921988.659   -562809.374   3465236.725
10 0 59462  65262.000000  0    5398805.860   -698091.935   4212020.382
10 0 59462  65382.000000  0    4779080.833   -811170.990   4884655.497
10 0 59462  65502.000000  0    4074092.918   -898484.003   5471328.515
10 0 59462  65622.000000  0    3296663.221   -957131.112   5961749.631
10 0 59462  65742.000000  0    2460913.175   -984949.560   6347328.944
10 0 59462  65862.000000  0    1582002.138   -980570.713   6621321.148
10 0 59462  65982.000000  0     675848.144   -943458.904   6778938.886
10 0 59462  66102.000000  0    -241163.297   -873930.530   6817430.631
10 0 59462  66222.000000  0   -1152475.276   -773153.992   6736124.416
10 0 59462  66342.000000  0   -2041657.046   -643130.199   6536438.405
10 0 59462  66462.000000  0   -2892698.689   -486653.542   6221857.681
10 0 59462  66582.000000  0   -3690299.393   -307254.231   5797878.538
10 0 59462  66702.000000  0   -4420145.892   -109123.007   5271918.955
10 0 59462  66822.000000  0   -5069175.421    102980.679   4653194.784
10 0 59462  66942.000000  0   -5625817.366    323834.947   3952563.041
10 0 59462  67062.000000  0   -6080208.429    547874.922   3182334.364
10 0 59462  67182.000000  0   -6424377.144    769322.509   2356058.458
10 0 59462  67302.000000  0   -6652393.582    982323.747   1488283.819
10 0 59462  67422.000000  0   -6760479.895   1181089.762    594296.834
10 0 59462  67542.000000  0   -6747078.185   1360038.486   -310155.513
10 0 59462  67662.000000  0   -6612872.382   1513933.103  -1209152.485
10 0 59462  67782.000000  0   -6360764.695   1638013.066  -2086888.151
10 0 59462  67902.000000  0   -5995809.186   1728115.987  -2927956.586
10 0 59462  68022.000000  0   -5525101.521   1780786.376  -3717629.025
10 0 59462  68142.000000  0   -4957628.620   1793367.399  -4442113.764
10 0 59462  68262.000000  0   -4304084.554   1764075.071  -5088794.275
10 0 59462  68382.000000  0   -3576657.560   1692053.151  -5646442.032
10 0 59462  68502.000000  0   -2788794.749   1577408.128  -6105401.644
10 0 59462  68622.000000  0   -1954948.765   1421223.440  -6457747.714
10 0 59462  68742.000000  0   -1090309.931   1225553.608  -6697409.978
10 0 59462  68862.000000  0    -210531.825    993397.775  -6820266.076
10 0 59462  68982.000000  0     668545.744    728654.331  -6824203.860
10 0 59462  69102.000000  0    1531174.180    436056.928  -6709155.806
10 0 59462  69222.000000  0    2361973.006    121091.559  -6477100.427
10 0 59462  69342.000000  0    3146197.968   -210102.987  -6132031.721
10 0 59462  69462.000000  0    3869999.632   -550850.437  -5679897.299
10 0 59462  69582.000000  0    4520665.981   -894066.509  -5128505.470
10 0 59462  69702.000000  0    5086849.244  -1232401.046  -4487403.155
10 0 59462  69822.000000  0    5558771.181  -1558390.423  -3767721.400
10 0 59462  69942.000000  0    5928401.638  -1864616.764  -2981991.293
10 0 59462  70062.000000  0    6189606.701  -2143871.249  -2143932.011
10 0 59462  70182.000000  0    6338261.966  -2389317.741  -1268213.741
10 0 59462  70302.000000  0    6372327.667  -2594652.148   -370200.057
10 0 59462  70422.000000  0    6291883.483  -2754254.050    534325.912
10 0 59462  70542.000000  0    6099121.240  -2863326.101   1429445.923
10 0 59462  70662.000000  0    5798294.785  -2918017.607   2299396.357
10 0 59462  70782.000000  0    5395626.858  -2915529.123   3128854.617
10 0 59462  70902.000000  0    4899177.094  -2854194.568   3903216.987
10 0 59462  71022.000000  0    4318674.350  -2733538.658   4608859.722
10 0 59462  71142.000000  0    3665320.201  -2554310.704   5233381.384
10 0 59462  71262.000000  0    2951563.687  -2318492.490   5765821.421
10 0 59462  71382.000000  0    2190856.343  -2029279.334   6196848.454
10 0 59462  71502.000000  0    1397393.268  -1691036.828   6518918.587
10 0 59462  71622.000000  0     585844.410  -1309233.797   6726401.643
10 0 59462  71742.000000  0    -228918.737   -890352.346   6815673.647
10 0 59462  71862.000000  0   -1032095.414   -441776.735   6785175.398
10 0 59462  71982.000000  0   -1809223.181     28336.595   6635437.730
10 0 59462  72102.000000  0   -2546437.265    511206.939   6369072.994
10 0 59462  72222.000000  0   -3230717.820    997592.461   5990732.855
10 0 59462  72342.000000  0   -3850121.691   1477965.925   5507032.657
10 0 59462  72462.000000  0   -4393995.541   1942700.497   4926442.425
10 0 59462  72582.000000  0   -4853166.075   2382262.709   4259144.251
10 0 59462  72702.000000  0   -5220101.873   2787408.758   3516857.210
10 0 59462  72822.000000  0   -5489043.979   3149378.986   2712633.579
10 0 59462  72942.000000  0   -5656102.972   3460087.098   1860629.512
10 0 59462  73062.000000  0   -5719320.278   3712300.303    975852.365
10 0 59462  73182.000000  0   -5678689.182   3899803.707     73888.804
10 0 59462  73302.000000  0   -5536136.509   4017545.197   -829377.561
10 0 59462  73422.000000  0   -5295465.821   4061757.928  -1718054.840
10 0 59462  73542.000000  0   -4962262.142   4030056.743  -2576532.442
10 0 59462  73662.000000  0   -4543760.031   3921504.857  -3389762.269
10 0 59462  73782.000000  0   -4048680.830   3736650.468  -4143525.785
10 0 59462  73902.000000  0   -3487043.896   3477533.386  -4824681.151
10 0 59462  74022.000000  0   -2869956.867   3147661.990  -5421386.842
10 0 59462  74142.000000  0   -2209392.193   2751962.336  -5923298.626
10 0 59462  74262.000000  0   -1517951.830   2296700.457  -6321739.767
10 0 59462  74382.000000  0    -808625.656   1789378.602  -6609839.004
10 0 59462  74502.000000  0     -94550.128   1238610.048  -6782637.475
10 0 59462  74622.000000  0     611229.892    653973.265  -6837164.536
10 0 59462  74742.000000  0    1295993.387     45848.683  -6772484.682
10 0 59462  74862.000000  0    1947568.135   -574762.104  -6589711.416
10 0 59462  74982.000000  0    2554541.405  -1196430.123  -6291989.304
10 0 59462  75102.000000  0    3106456.756  -1807504.105  -5884445.969
10 0 59462  75222.000000  0    3593992.947  -2396323.354  -5374113.403
10 0 59462  75342.000000  0    4009124.871  -2951438.485  -4769818.916
10 0 59462  75462.000000  0    4345259.871  -3461834.314  -4082042.008
10 0 59462  75582.000000  0    4597347.384  -3917148.912  -3322742.790
10 0 59462  75702.000000  0    4761962.060  -4307886.662  -2505162.708
10 0 59462  75822.000000  0    4837356.167  -4625619.837  -1643597.969
10 0 59462  75942.000000  0    4823479.584  -4863173.949   -753150.398
10 0 59462  76062.000000  0    4721964.924  -5014791.613    150541.038
10 0 59462  76182.000000  0    4536078.259  -5076269.276   1051581.281
10 0 59462  76302.000000  0    4270637.217  -5045063.754   1934107.581
10 0 59462  76422.000000  0    3931896.095  -4920364.656   2782577.657
10 0 59462  76542.000000  0    3527403.605  -4703132.655   3582050.976
10 0 59462  76662.000000  0    3065835.347  -4396101.139   4318458.447
10 0 59462  76782.000000  0    2556806.085  -4003741.512   4978853.517
10 0 59462  76902.000000  0    2010666.866  -3532193.915   5551640.274
10 0 59462  77022.000000  0    1438291.493  -2989165.446   6026775.421
10 0 59462  77142.000000  0     850857.016  -2383797.437   6395939.526
10 0 59462  77262.000000  0     259623.773  -1726506.880   6652676.341
10 0 59462  77382.000000  0    -324280.762  -1028804.240   6792499.307
10 0 59462  77502.000000  0    -890070.313   -303089.914   6812965.822
10 0 59462  77622.000000  0   -1427498.138    437566.675   6713717.013
10 0 59462  77742.000000  0   -1927042.084   1179661.995   6496483.540
10 0 59462  77862.000000  0   -2380073.263   1909503.703   6165057.307
10 0 59462  77982.000000  0   -2779006.003   2613462.710   5725229.477
10 0 59462  78102.000000  0   -3117426.740   3278228.820   5184695.583
10 0 59462  78222.000000  0   -3390200.673   3891065.010   4552927.262
10 0 59462  78342.000000  0   -3593552.959   4440056.306   3841011.727
10 0 59462  78462.000000  0   -3725122.696   4914347.748   3061460.459
10 0 59462  78582.000000  0   -3783988.187   5304366.091   2227989.496
10 0 59462  78702.000000  0   -3770662.233   5602018.388   1355274.941
10 0 59462  78822.000000  0   -3687057.975   5800863.498    458690.300
10 0 59462  78942.000000  0   -3536427.090   5896254.098   -445971.451
10 0 59462  79062.000000  0   -3323269.372   5885442.220  -1342785.994
10 0 59462  79182.000000  0   -3053216.763   5767645.146  -2215988.561
10 0 59462  79302.000000  0   -2732892.837   5544069.915  -3050259.514
10 0 59462  79422.000000  0   -2369755.764   5217898.931  -3830996.062
10 0 59462  79542.000000  0   -1971928.323   4794236.466  -4544569.119
10 0 59462  79662.000000  0   -1548017.911   4280017.585  -5178556.931
10 0 59462  79782.000000  0   -1106933.068   3683885.404  -5721953.731
99
